{
    "links": {
        "self": "http://www.neowsapp.com/rest/v1/neo/3422249?api_key=iIulBulltgU6a56xZRHN4H3l9WmuAYTsLGpBGhQ2"
    },
    "id": "3422249",
    "neo_reference_id": "3422249",
    "name": "(2008 OO8)",
    "designation": "2008 OO8",
    "nasa_jpl_url": "http://ssd.jpl.nasa.gov/sbdb.cgi?sstr=3422249",
    "absolute_magnitude_h": 25.2,
    "estimated_diameter": {
        "kilometers": {
            "estimated_diameter_min": 0.0242412481,
            "estimated_diameter_max": 0.0542050786
        },
        "meters": {
            "estimated_diameter_min": 24.2412481101,
            "estimated_diameter_max": 54.2050786336
        },
        "miles": {
            "estimated_diameter_min": 0.0150628086,
            "estimated_diameter_max": 0.0336814639
        },
        "feet": {
            "estimated_diameter_min": 79.5316564495,
            "estimated_diameter_max": 177.8381901842
        }
    },
    "is_potentially_hazardous_asteroid": false,
    "close_approach_data": [
        {
            "close_approach_date": "2005-09-06",
            "close_approach_date_full": "2005-Sep-06 05:37",
            "epoch_date_close_approach": 1125985020000,
            "relative_velocity": {
                "kilometers_per_second": "20.7138431736",
                "kilometers_per_hour": "74569.8354250237",
                "miles_per_hour": "46334.7957950654"
            },
            "miss_distance": {
                "astronomical": "0.4364747813",
                "lunar": "169.7886899257",
                "kilometers": "65295697.591195831",
                "miles": "40572865.0944152278"
            },
            "orbiting_body": "Earth"
        },
        {
            "close_approach_date": "2008-07-23",
            "close_approach_date_full": "2008-Jul-23 09:38",
            "epoch_date_close_approach": 1216805880000,
            "relative_velocity": {
                "kilometers_per_second": "8.273867137",
                "kilometers_per_hour": "29785.9216931671",
                "miles_per_hour": "18507.8133987349"
            },
            "miss_distance": {
                "astronomical": "0.0059245033",
                "lunar": "2.3046317837",
                "kilometers": "886293.074487971",
                "miles": "550716.9794011598"
            },
            "orbiting_body": "Earth"
        },
        {
            "close_approach_date": "2008-07-23",
            "close_approach_date_full": "2008-Jul-23 17:58",
            "epoch_date_close_approach": 1216835880000,
            "relative_velocity": {
                "kilometers_per_second": "8.3576850923",
                "kilometers_per_hour": "30087.6663321743",
                "miles_per_hour": "18695.3057829002"
            },
            "miss_distance": {
                "astronomical": "0.0055191863",
                "lunar": "2.1469634707",
                "kilometers": "825658.514613181",
                "miles": "513040.4109806578"
            },
            "orbiting_body": "Moon"
        },
        {
            "close_approach_date": "2011-05-22",
            "close_approach_date_full": "2011-May-22 06:15",
            "epoch_date_close_approach": 1306044900000,
            "relative_velocity": {
                "kilometers_per_second": "15.1188580376",
                "kilometers_per_hour": "54427.888935378",
                "miles_per_hour": "33819.3735443186"
            },
            "miss_distance": {
                "astronomical": "0.2667608211",
                "lunar": "103.7699594079",
                "kilometers": "39906850.636011057",
                "miles": "24796967.1345723066"
            },
            "orbiting_body": "Earth"
        }
    ],
    "orbital_data": {
        "orbit_id": "13",
        "orbit_determination_date": "2017-04-06 09:03:11",
        "first_observation_date": "2008-07-30",
        "last_observation_date": "2008-08-24",
        "data_arc_in_days": 25,
        "observations_used": 37,
        "orbit_uncertainty": "8",
        "minimum_orbit_intersection": ".0057083",
        "jupiter_tisserand_invariant": "3.611",
        "epoch_osculation": "2454681.5",
        "eccentricity": ".5074057829295362",
        "semi_major_axis": "2.052246269135453",
        "inclination": "6.359617786642425",
        "ascending_node_longitude": "302.062278831474",
        "orbital_period": "1073.847570942516",
        "perihelion_distance": "1.010924644180559",
        "perihelion_argument": "344.6561875597139",
        "aphelion_distance": "3.093567894090348",
        "perihelion_time": "2454659.054765378700",
        "mean_anomaly": "7.524610272737249",
        "mean_motion": ".3352431106064969",
        "equinox": "J2000",
        "orbit_class": {
            "orbit_class_type": "APO",
            "orbit_class_description": "Near-Earth asteroid orbits which cross the Earth’s orbit similar to that of 1862 Apollo",
            "orbit_class_range": "a (semi-major axis) > 1.0 AU; q (perihelion) < 1.017 AU"
        }
    },
    "is_sentry_object": false
}